{"fetchedAt":"2026-06-29T18:07:57.252Z","satellites":[{"id":"61182","name":"GSAT0232 (GALILEO 32)","constellationId":"galileo","omm":{"OBJECT_NAME":"GSAT0232 (GALILEO 32)","OBJECT_ID":"2024-167A","EPOCH":"2026-06-27T05:03:51.138720","MEAN_MOTION":1.70474501,"ECCENTRICITY":0.0006275,"INCLINATION":55.1827,"RA_OF_ASC_NODE":221.0386,"ARG_OF_PERICENTER":229.781,"MEAN_ANOMALY":130.7838,"EPHEMERIS_TYPE":0,"CLASSIFICATION_TYPE":"U","NORAD_CAT_ID":61182,"ELEMENT_SET_NO":999,"REV_AT_EPOCH":1105,"BSTAR":0,"MEAN_MOTION_DOT":6.7e-7,"MEAN_MOTION_DDOT":0}},{"id":"61183","name":"GSAT0226 (GALILEO 31)","constellationId":"galileo","omm":{"OBJECT_NAME":"GSAT0226 (GALILEO 31)","OBJECT_ID":"2024-167B","EPOCH":"2026-06-29T09:45:13.487040","MEAN_MOTION":1.70474415,"ECCENTRICITY":0.0003004,"INCLINATION":55.1811,"RA_OF_ASC_NODE":220.9855,"ARG_OF_PERICENTER":232.0216,"MEAN_ANOMALY":127.2488,"EPHEMERIS_TYPE":0,"CLASSIFICATION_TYPE":"U","NORAD_CAT_ID":61183,"ELEMENT_SET_NO":999,"REV_AT_EPOCH":1105,"BSTAR":0,"MEAN_MOTION_DOT":7.2e-7,"MEAN_MOTION_DDOT":0}},{"id":"67160","name":"GSAT0233 (GALILEO 33)","constellationId":"galileo","omm":{"OBJECT_NAME":"GSAT0233 (GALILEO 33)","OBJECT_ID":"2025-302A","EPOCH":"2026-06-28T08:43:45.640416","MEAN_MOTION":1.70474273,"ECCENTRICITY":0.00008832,"INCLINATION":54.3415,"RA_OF_ASC_NODE":101.813,"ARG_OF_PERICENTER":200.7223,"MEAN_ANOMALY":335.1297,"EPHEMERIS_TYPE":0,"CLASSIFICATION_TYPE":"U","NORAD_CAT_ID":67160,"ELEMENT_SET_NO":999,"REV_AT_EPOCH":331,"BSTAR":0,"MEAN_MOTION_DOT":-3.3e-7,"MEAN_MOTION_DDOT":0}},{"id":"67162","name":"GSAT0234 (GALILEO 34)","constellationId":"galileo","omm":{"OBJECT_NAME":"GSAT0234 (GALILEO 34)","OBJECT_ID":"2025-302C","EPOCH":"2026-06-27T11:42:56.390688","MEAN_MOTION":1.70474246,"ECCENTRICITY":0.00029185,"INCLINATION":54.343,"RA_OF_ASC_NODE":101.8368,"ARG_OF_PERICENTER":307.1901,"MEAN_ANOMALY":231.4101,"EPHEMERIS_TYPE":0,"CLASSIFICATION_TYPE":"U","NORAD_CAT_ID":67162,"ELEMENT_SET_NO":999,"REV_AT_EPOCH":335,"BSTAR":0,"MEAN_MOTION_DOT":-3.6e-7,"MEAN_MOTION_DDOT":0}}]}